{
    "type": "FeatureCollection",
    "features": [
        {
            "type": "Feature",
            "geometry": {
                "type": "Polygon",
                "bbox": [
                    -71.814915,
                    -32.282101,
                    -69.809744,
                    -29.037888
                ],
                "coordinates": [
                    [
                        [
                            -71.814915,
                            -32.282101
                        ],
                        [
                            -69.809744,
                            -32.282101
                        ],
                        [
                            -69.809744,
                            -29.037888
                        ],
                        [
                            -71.814915,
                            -29.037888
                        ],
                        [
                            -71.814915,
                            -32.282101
                        ]
                    ]
                ]
            },
            "properties": {
                "label": "Coquimbo - Chile"
            }
        }
    ]
}