{
    "type": "FeatureCollection",
    "features": [
        {
            "type": "Feature",
            "geometry": {
                "type": "Polygon",
                "bbox": [
                    -71.19688,
                    -29.351374,
                    -70.003117,
                    -28.010033
                ],
                "coordinates": [
                    [
                        [
                            -71.19688,
                            -29.351374
                        ],
                        [
                            -70.003117,
                            -29.351374
                        ],
                        [
                            -70.003117,
                            -28.010033
                        ],
                        [
                            -71.19688,
                            -28.010033
                        ],
                        [
                            -71.19688,
                            -29.351374
                        ]
                    ]
                ]
            },
            "properties": {
                "label": "Vallenar - Atacama, Chile"
            }
        }
    ]
}